{"type": "FeatureCollection", "features": [ {"type": "Feature", "properties": {"norad_id": 34077, "name": "IRIDIUM 33 DEB", "group": "iridium-33-debris", "lat": -74.49561622109968, "lon": -117.39893135942563, "alt_km": 689.261194439272, "timestamp": "2025-12-17T10:52:54.737135+00:00", "meta": {"OBJECT_NAME": "IRIDIUM 33 DEB", "OBJECT_ID": "1997-051CL", "EPOCH": "2025-12-16T16:15:17.100000", "MEAN_MOTION": 14.64880875, "ECCENTRICITY": 0.00097738, "INCLINATION": 86.3859, "RA_OF_ASC_NODE": 49.7731, "ARG_OF_PERICENTER": 27.321, "MEAN_ANOMALY": 97.3185, "EPHEMERIS_TYPE": 0, "CLASSIFICATION_TYPE": "U", "NORAD_CAT_ID": 34077, "ELEMENT_SET_NO": 999, "REV_AT_EPOCH": 88390, "BSTAR": 0.00072857342, "MEAN_MOTION_DOT": 3.916e-05, "MEAN_MOTION_DDOT": 0}, "tle": {"line1": "1 34077U 97051CL  25350.67728125  .00003916  00000+0  72857-3 0  9996", "line2": "2 34077  86.3859  49.7731 0009773  27.3210  97.3185 14.64880875883906"}}, "geometry": {"type": "Point", "coordinates": [-117.39893135942563, -74.49561622109968]}}, {"type": "Feature", "properties": {"norad_id": 34079, "name": "IRIDIUM 33 DEB", "group": "iridium-33-debris", "lat": -24.092527533612763, "lon": -171.8577422017099, "alt_km": 626.5024053525885, "timestamp": "2025-12-17T10:52:54.737160+00:00", "meta": {"OBJECT_NAME": "IRIDIUM 33 DEB", "OBJECT_ID": "1997-051CN", "EPOCH": "2025-12-16T22:51:10.442880", "MEAN_MOTION": 14.8363878, "ECCENTRICITY": 0.00050967, "INCLINATION": 86.3774, "RA_OF_ASC_NODE": 6.7468, "ARG_OF_PERICENTER": 353.7834, "MEAN_ANOMALY": 55.0377, "EPHEMERIS_TYPE": 0, "CLASSIFICATION_TYPE": "U", "NORAD_CAT_ID": 34079, "ELEMENT_SET_NO": 999, "REV_AT_EPOCH": 89040, "BSTAR": 0.0013326722, "MEAN_MOTION_DOT": 0.00011028, "MEAN_MOTION_DDOT": 0}, "tle": {"line1": "1 34079U 97051CN  25350.95220420  .00011028  00000+0  13327-2 0  9993", "line2": "2 34079  86.3774   6.7468 0005096 353.7834  55.0377 14.83638780890400"}}, "geometry": {"type": "Point", "coordinates": [-171.8577422017099, -24.092527533612763]}}, {"type": "Feature", "properties": {"norad_id": 34088, "name": "IRIDIUM 33 DEB", "group": "iridium-33-debris", "lat": 68.99324004740662, "lon": 38.035083684214364, "alt_km": 586.4713306613339, "timestamp": "2025-12-17T10:52:54.737173+00:00", "meta": {"OBJECT_NAME": "IRIDIUM 33 DEB", "OBJECT_ID": "1997-051CX", "EPOCH": "2025-12-16T15:49:03.645408", "MEAN_MOTION": 14.91567961, "ECCENTRICITY": 0.00061162, "INCLINATION": 86.3848, "RA_OF_ASC_NODE": 28.9234, "ARG_OF_PERICENTER": 163.7337, "MEAN_ANOMALY": 323.1373, "EPHEMERIS_TYPE": 0, "CLASSIFICATION_TYPE": "U", "NORAD_CAT_ID": 34088, "ELEMENT_SET_NO": 999, "REV_AT_EPOCH": 88800, "BSTAR": 0.001784804, "MEAN_MOTION_DOT": 0.00017948, "MEAN_MOTION_DDOT": 0}, "tle": {"line1": "1 34088U 97051CX  25350.65906997  .00017948  00000+0  17848-2 0  9999", "line2": "2 34088  86.3848  28.9234 0006116 163.7337 323.1373 14.91567961888009"}}, "geometry": {"type": "Point", "coordinates": [38.035083684214364, 68.99324004740662]}}, {"type": "Feature", "properties": {"norad_id": 34091, "name": "IRIDIUM 33 DEB", "group": "iridium-33-debris", "lat": 84.41218678058266, "lon": -156.15524873481272, "alt_km": 638.4470501494816, "timestamp": "2025-12-17T10:52:54.737184+00:00", "meta": {"OBJECT_NAME": "IRIDIUM 33 DEB", "OBJECT_ID": "1997-051DA", "EPOCH": "2025-12-16T11:46:18.543360", "MEAN_MOTION": 14.82111628, "ECCENTRICITY": 0.00334463, "INCLINATION": 86.3424, "RA_OF_ASC_NODE": 65.116, "ARG_OF_PERICENTER": 279.6174, "MEAN_ANOMALY": 80.127, "EPHEMERIS_TYPE": 0, "CLASSIFICATION_TYPE": "U", "NORAD_CAT_ID": 34091, "ELEMENT_SET_NO": 999, "REV_AT_EPOCH": 87922, "BSTAR": 0.0036492402, "MEAN_MOTION_DOT": 0.00029418, "MEAN_MOTION_DDOT": 0}, "tle": {"line1": "1 34091U 97051DA  25350.49049240  .00029418  00000+0  36492-2 0  9995", "line2": "2 34091  86.3424  65.1160 0033446 279.6174  80.1270 14.82111628879221"}}, "geometry": {"type": "Point", "coordinates": [-156.15524873481272, 84.41218678058266]}}, {"type": "Feature", "properties": {"norad_id": 34097, "name": "IRIDIUM 33 DEB", "group": "iridium-33-debris", "lat": -80.64982870125975, "lon": -156.86885604516925, "alt_km": 777.9057204163537, "timestamp": "2025-12-17T10:52:54.737194+00:00", "meta": {"OBJECT_NAME": "IRIDIUM 33 DEB", "OBJECT_ID": "1997-051DG", "EPOCH": "2025-12-16T23:37:09.206112", "MEAN_MOTION": 14.3481211, "ECCENTRICITY": 0.00821529, "INCLINATION": 86.2005, "RA_OF_ASC_NODE": 359.5351, "ARG_OF_PERICENTER": 348.3382, "MEAN_ANOMALY": 11.5908, "EPHEMERIS_TYPE": 0, "CLASSIFICATION_TYPE": "U", "NORAD_CAT_ID": 34097, "ELEMENT_SET_NO": 999, "REV_AT_EPOCH": 87180, "BSTAR": 0.0011716102, "MEAN_MOTION_DOT": 3.47e-05, "MEAN_MOTION_DDOT": 0}, "tle": {"line1": "1 34097U 97051DG  25350.98413433  .00003470  00000+0  11716-2 0  9996", "line2": "2 34097  86.2005 359.5351 0082152 348.3382  11.5908 14.34812110871809"}}, "geometry": {"type": "Point", "coordinates": [-156.86885604516925, -80.64982870125975]}}, {"type": "Feature", "properties": {"norad_id": 34145, "name": "IRIDIUM 33 DEB", "group": "iridium-33-debris", "lat": -61.360481621779556, "lon": -36.5418354163275, "alt_km": 788.612980608832, "timestamp": "2025-12-17T10:52:54.737205+00:00", "meta": {"OBJECT_NAME": "IRIDIUM 33 DEB", "OBJECT_ID": "1997-051DY", "EPOCH": "2025-12-16T23:30:45.812160", "MEAN_MOTION": 14.42319443, "ECCENTRICITY": 0.00557597, "INCLINATION": 86.2113, "RA_OF_ASC_NODE": 330.6385, "ARG_OF_PERICENTER": 80.3876, "MEAN_ANOMALY": 280.3618, "EPHEMERIS_TYPE": 0, "CLASSIFICATION_TYPE": "U", "NORAD_CAT_ID": 34145, "ELEMENT_SET_NO": 999, "REV_AT_EPOCH": 87699, "BSTAR": 0.00087533026, "MEAN_MOTION_DOT": 2.964e-05, "MEAN_MOTION_DDOT": 0}, "tle": {"line1": "1 34145U 97051DY  25350.97969690  .00002964  00000+0  87533-3 0  9998", "line2": "2 34145  86.2113 330.6385 0055759  80.3876 280.3618 14.42319443876993"}}, "geometry": {"type": "Point", "coordinates": [-36.5418354163275, -61.360481621779556]}}, {"type": "Feature", "properties": {"norad_id": 34146, "name": "IRIDIUM 33 DEB", "group": "iridium-33-debris", "lat": 50.71220180139716, "lon": -7.724356478135981, "alt_km": 740.6607807805685, "timestamp": "2025-12-17T10:52:54.737215+00:00", "meta": {"OBJECT_NAME": "IRIDIUM 33 DEB", "OBJECT_ID": "1997-051DZ", "EPOCH": "2025-12-16T23:20:15.016128", "MEAN_MOTION": 14.49078294, "ECCENTRICITY": 0.00259227, "INCLINATION": 86.2833, "RA_OF_ASC_NODE": 347.931, "ARG_OF_PERICENTER": 206.7455, "MEAN_ANOMALY": 216.6138, "EPHEMERIS_TYPE": 0, "CLASSIFICATION_TYPE": "U", "NORAD_CAT_ID": 34146, "ELEMENT_SET_NO": 999, "REV_AT_EPOCH": 88168, "BSTAR": 0.00070211231, "MEAN_MOTION_DOT": 2.697e-05, "MEAN_MOTION_DDOT": 0}, "tle": {"line1": "1 34146U 97051DZ  25350.97239602  .00002697  00000+0  70211-3 0  9990", "line2": "2 34146  86.2833 347.9310 0025922 206.7455 216.6138 14.49078294881682"}}, "geometry": {"type": "Point", "coordinates": [-7.724356478135981, 50.71220180139716]}}, {"type": "Feature", "properties": {"norad_id": 34159, "name": "IRIDIUM 33 DEB", "group": "iridium-33-debris", "lat": -52.90180671172561, "lon": 41.39001409598992, "alt_km": 755.4551893323478, "timestamp": "2025-12-17T10:52:54.737226+00:00", "meta": {"OBJECT_NAME": "IRIDIUM 33 DEB", "OBJECT_ID": "1997-051EN", "EPOCH": "2025-12-16T16:45:48.595104", "MEAN_MOTION": 14.385039, "ECCENTRICITY": 0.00259254, "INCLINATION": 86.3502, "RA_OF_ASC_NODE": 46.5535, "ARG_OF_PERICENTER": 273.7892, "MEAN_ANOMALY": 86.0342, "EPHEMERIS_TYPE": 0, "CLASSIFICATION_TYPE": "U", "NORAD_CAT_ID": 34159, "ELEMENT_SET_NO": 999, "REV_AT_EPOCH": 88016, "BSTAR": 0.00035210436, "MEAN_MOTION_DOT": 1.099e-05, "MEAN_MOTION_DDOT": 0}, "tle": {"line1": "1 34159U 97051EN  25350.69847911  .00001099  00000+0  35210-3 0  9996", "line2": "2 34159  86.3502  46.5535 0025925 273.7892  86.0342 14.38503900880166"}}, "geometry": {"type": "Point", "coordinates": [41.39001409598992, -52.90180671172561]}}, {"type": "Feature", "properties": {"norad_id": 34350, "name": "IRIDIUM 33 DEB", "group": "iridium-33-debris", "lat": 85.66696187381366, "lon": 122.79944685529553, "alt_km": 718.7204332111451, "timestamp": "2025-12-17T10:52:54.737236+00:00", "meta": {"OBJECT_NAME": "IRIDIUM 33 DEB", "OBJECT_ID": "1997-051ES", "EPOCH": "2025-12-16T13:26:54.257280", "MEAN_MOTION": 14.45395902, "ECCENTRICITY": 0.00231296, "INCLINATION": 86.3273, "RA_OF_ASC_NODE": 1.1493, "ARG_OF_PERICENTER": 123.3706, "MEAN_ANOMALY": 5.0322, "EPHEMERIS_TYPE": 0, "CLASSIFICATION_TYPE": "U", "NORAD_CAT_ID": 34350, "ELEMENT_SET_NO": 999, "REV_AT_EPOCH": 88348, "BSTAR": 0.00030095479, "MEAN_MOTION_DOT": 1.082e-05, "MEAN_MOTION_DDOT": 0}, "tle": {"line1": "1 34350U 97051ES  25350.56035020  .00001082  00000+0  30095-3 0  9993", "line2": "2 34350  86.3273   1.1493 0023129 123.3706   5.0322 14.45395902883488"}}, "geometry": {"type": "Point", "coordinates": [122.79944685529553, 85.66696187381366]}}, {"type": "Feature", "properties": {"norad_id": 34366, "name": "IRIDIUM 33 DEB", "group": "iridium-33-debris", "lat": -27.876613464615165, "lon": -130.81194167938915, "alt_km": 716.2764703109606, "timestamp": "2025-12-17T10:52:54.737246+00:00", "meta": {"OBJECT_NAME": "IRIDIUM 33 DEB", "OBJECT_ID": "1997-051FJ", "EPOCH": "2025-12-16T04:27:03.913344", "MEAN_MOTION": 14.5408801, "ECCENTRICITY": 0.00226911, "INCLINATION": 86.3701, "RA_OF_ASC_NODE": 47.8151, "ARG_OF_PERICENTER": 128.8458, "MEAN_ANOMALY": 285.6209, "EPHEMERIS_TYPE": 0, "CLASSIFICATION_TYPE": "U", "NORAD_CAT_ID": 34366, "ELEMENT_SET_NO": 999, "REV_AT_EPOCH": 88232, "BSTAR": 0.00066965836, "MEAN_MOTION_DOT": 2.857e-05, "MEAN_MOTION_DDOT": 0}, "tle": {"line1": "1 34366U 97051FJ  25350.18546196  .00002857  00000+0  66966-3 0  9996", "line2": "2 34366  86.3701  47.8151 0022691 128.8458 285.6209 14.54088010882327"}}, "geometry": {"type": "Point", "coordinates": [-130.81194167938915, -27.876613464615165]}}]}